[
  {
    "name": "LILACSAT 2",
    "tle1": "1 40908U 15049K   26159.30617933  .00015058  00000-0  25943-3 0  9990",
    "tle2": "2 40908  97.4659 195.8117 0005280 288.2767  71.7910 15.51149254594370",
    "norad_id": "40908"
  },
  {
    "name": "VELOX 1",
    "tle1": "1 40057U 14034E   26159.24025927  .00004164  00000-0  35982-3 0  9997",
    "tle2": "2 40057  98.2551  63.7365 0006488 314.3512  45.7177 14.97808171645263",
    "norad_id": "40057"
  },
  {
    "name": "CANX-4",
    "tle1": "1 40055U 14034C   26159.23518149  .00001005  00000-0  13618-3 0  9990",
    "tle2": "2 40055  98.3133  34.2191 0013741  44.2907 315.9401 14.81248501643207",
    "norad_id": "40055"
  },
  {
    "name": "AISAT",
    "tle1": "1 40054U 14034B   26159.21017107  .00008209  00000-0  52818-3 0  9993",
    "tle2": "2 40054  98.2391  70.9635 0007249 248.4275 111.6179 15.08657836645854",
    "norad_id": "40054"
  },
  {
    "name": "TIGRISAT",
    "tle1": "1 40043U 14033AK  26159.15501159  .00002433  00000-0  28416-3 0  9998",
    "tle2": "2 40043  97.7825 309.3746 0050717 104.0252 256.6609 14.85126633644284",
    "norad_id": "40043"
  },
  {
    "name": "NANOSAT-C-BR1",
    "tle1": "1 40024U 14033Q   26159.05715204  .00017706  00000-0  59014-3 0  9991",
    "tle2": "2 40024  98.0729 190.6378 0003448 188.9886 171.1292 15.31168300652585",
    "norad_id": "40024"
  },
  {
    "name": "UKUBE 1",
    "tle1": "1 40074U 14037F   26159.24291910  .00007432  00000-0  42040-3 0  9990",
    "tle2": "2 40074  98.4241 161.5760 0002102 144.8287 215.3081 15.13409283647205",
    "norad_id": "40074"
  },
  {
    "name": "POLYITAN 1",
    "tle1": "1 40042U 14033AJ  26159.04517620  .00019032  00000-0  59961-3 0  9997",
    "tle2": "2 40042  98.0952 184.4437 0007909 168.1396 192.0032 15.32938693652194",
    "norad_id": "40042"
  },
  {
    "name": "QB50P1",
    "tle1": "1 40025U 14033R   26158.98870317  .00009215  00000-0  45488-3 0  9996",
    "tle2": "2 40025  98.0970 169.4906 0007153 252.8101 107.2349 15.18121687651633",
    "norad_id": "40025"
  },
  {
    "name": "QB50P2",
    "tle1": "1 40032U 14033Y   26158.98608825  .00007741  00000-0  41770-3 0  9999",
    "tle2": "2 40032  98.0757 155.2946 0007032 193.2890 166.8157 15.15044033651274",
    "norad_id": "40032"
  },
  {
    "name": "DTUSAT 2",
    "tle1": "1 40030U 14033W   26158.92490948  .00007538  00000-0  40854-3 0  9992",
    "tle2": "2 40030  98.0866 156.0650 0006110 264.3965  95.6569 15.14901729651283",
    "norad_id": "40030"
  },
  {
    "name": "DUCHIFAT 1",
    "tle1": "1 40021U 14033M   26159.12664082  .00107166  00000-0  11780-2 0  9990",
    "tle2": "2 40021  98.0465 217.0282 0004621 132.1747 227.9902 15.62815586654330",
    "norad_id": "40021"
  },
  {
    "name": "CANX-5",
    "tle1": "1 40056U 14034D   26159.16616803  .00001009  00000-0  13663-3 0  9993",
    "tle2": "2 40056  98.3136  34.1908 0013744  44.6242 315.6074 14.81265470634000",
    "norad_id": "40056"
  },
  {
    "name": "DX 1",
    "tle1": "1 40071U 14037C   26159.22821944  .00002078  00000-0  22219-3 0  9998",
    "tle2": "2 40071  98.3865 120.3868 0006183 310.5850  49.4827 14.89958597644778",
    "norad_id": "40071"
  },
  {
    "name": "METEOR M2",
    "tle1": "1 40069U 14037A   26159.27645156  .00000210  00000-0  11503-3 0  9999",
    "tle2": "2 40069  98.5115 135.3309 0007015  65.8839 294.3072 14.21459103618053",
    "norad_id": "40069"
  },
  {
    "name": "DEORBITSAIL",
    "tle1": "1 40719U 15032E   26159.17444351  .00005646  00000-0  41540-3 0  9992",
    "tle2": "2 40719  97.5898  16.1744 0011117 265.4742  94.5214 15.03731005589892",
    "norad_id": "40719"
  },
  {
    "name": "OBJECT G",
    "tle1": "1 40905U 15049G   26159.16740140  .00043636  00000-0  43173-3 0  9996",
    "tle2": "2 40905  97.4563 202.7026 0004182 224.6759 135.4164 15.65737269595030",
    "norad_id": "40905"
  },
  {
    "name": "PERSEUS M1",
    "tle1": "1 40039U 14033AF  26158.80352856  .00002406  00000-0  22194-3 0  9999",
    "tle2": "2 40039  97.9642 102.7818 0010797 337.2410  22.8330 14.95606924649234",
    "norad_id": "40039"
  },
  {
    "name": "SMAP",
    "tle1": "1 40376U 15003A   26159.25932168  .00000456  00000-0  97433-4 0  9993",
    "tle2": "2 40376  98.1276 166.4804 0001268  93.8030 266.3317 14.63358903606310",
    "norad_id": "40376"
  },
  {
    "name": "BRITE-PL 2",
    "tle1": "1 40119U 14049B   26159.20108343  .00002529  00000-0  23888-3 0  9997",
    "tle2": "2 40119  97.9088 271.1327 0015155 135.2665 224.9780 14.94564336640104",
    "norad_id": "40119"
  },
  {
    "name": "DMC 3-FM1",
    "tle1": "1 40715U 15032A   26159.31539277  .00000814  00000-0  99711-4 0  9992",
    "tle2": "2 40715  97.6470  24.8377 0007173  82.5671 277.6360 14.85728812588592",
    "norad_id": "40715"
  },
  {
    "name": "DMC 3-FM2",
    "tle1": "1 40716U 15032B   26159.27012778  .00001127  00000-0  13567-3 0  9992",
    "tle2": "2 40716  97.6526  26.3621 0007720  87.0151 273.1948 14.85736563588589",
    "norad_id": "40716"
  },
  {
    "name": "DMC 3-FM3",
    "tle1": "1 40717U 15032C   26159.29339270  .00000137  00000-0  21759-4 0  9997",
    "tle2": "2 40717  97.6577  28.1317 0006867  86.0578 274.1422 14.85722476588598",
    "norad_id": "40717"
  },
  {
    "name": "CARBONITE 1",
    "tle1": "1 40718U 15032D   26159.27961611  .00001561  00000-0  19538-3 0  9999",
    "tle2": "2 40718  97.6510 337.7197 0013788 329.7587  30.2831 14.83560929588022",
    "norad_id": "40718"
  },
  {
    "name": "CBERS-4",
    "tle1": "1 40336U 14079A   26159.32446241  .00000102  00000-0  50090-4 0  9997",
    "tle2": "2 40336  98.3530 216.4339 0002045  71.4531 288.6878 14.35506892602688",
    "norad_id": "40336"
  },
  {
    "name": "GONETS M 10 (M20)",
    "tle1": "1 40063U 14036C   26159.21617269  .00000067  00000-0  40774-3 0  9992",
    "tle2": "2 40063  82.5113 313.2477 0022274 159.4915 200.7064 12.42945461541134",
    "norad_id": "40063"
  },
  {
    "name": "GONETS M 11 (M21)",
    "tle1": "1 40552U 15020A   26159.31462792  .00000053  00000-0  31359-3 0  9993",
    "tle2": "2 40552  82.4873  36.5204 0017003  24.3498 335.8381 12.42876998507639",
    "norad_id": "40552"
  },
  {
    "name": "GONETS M 12 (M22)",
    "tle1": "1 40553U 15020B   26159.28821693  .00000028  00000-0  13010-3 0  9995",
    "tle2": "2 40553  82.4906  37.6584 0015746  10.0008 350.1382 12.42891015507628",
    "norad_id": "40553"
  },
  {
    "name": "GONETS M 13 (M23)",
    "tle1": "1 40554U 15020C   26159.26154860  .00000038  00000-0  20471-3 0  9999",
    "tle2": "2 40554  82.4868  36.2926 0014103 355.7444   4.3513 12.42870057507593",
    "norad_id": "40554"
  },
  {
    "name": "GAOFEN 2",
    "tle1": "1 40118U 14049A   26159.32496112  .00000311  00000-0  47180-4 0  9992",
    "tle2": "2 40118  98.0106 223.5405 0005896 262.4816  97.5726 14.80888176637922",
    "norad_id": "40118"
  }
]